OPS 1948                
1 11558U 79086A   26062.87753243 -.00000203  00000+0  00000+0 0  9999
2 11558   5.9509  11.0669 1311237  76.4549 110.0605  1.00143850 25154
TITAN 3C TRANSTAGE R/B  
1 11560U 79086C   26062.92756365 -.00000093  00000+0  00000+0 0  9993
2 11560   5.7739  11.7760 1301383 125.0438 248.0289  0.99673469 25193
EKRAN 4                 
1 11561U 79087A   26063.10383411 -.00000267  00000+0  00000+0 0  9997
2 11561   5.8556 285.8454 0003301 120.4561 244.5628  1.00304830 46322
SL-12 R/B(2)            
1 11567U 74017F   26063.13477425 -.00000156  00000+0  00000+0 0  9990
2 11567   0.9549 254.2337 0045243  85.6012 118.0911  1.01006580191615
SL-12 R/B(2)            
1 11568U 75123F   26062.90312968 -.00000096  00000+0  00000+0 0  9997
2 11568   2.8162 265.9213 0012936 214.2075 165.1508  1.00479070120942
EKRAN 2 DEB             
1 11581U 77092H   26063.09100737  .00000132  00000+0  00000+0 0  9999
2 11581   4.4096 275.4684 0007035 287.3856  18.5312  1.00323023103302
TITAN 3C TRANSTAGE R/B  
1 11623U 79098C   26062.76403176 -.00000142  00000+0  00000+0 0  9992
2 11623  10.4186 306.4475 0295709  74.4178 113.8539  0.95318106121587
GORIZONT 3              
1 11648U 79105A   26063.10210076 -.00000166  00000+0  00000+0 0  9998
2 11648   6.1851 288.7953 0010771 271.2141  81.4485  1.00197632121428
OPS 6393 (FLTSATCOM 3)  
1 11669U 80004A   26063.07445397 -.00000306  00000+0  00000+0 0  9999
2 11669   6.3864 307.0985 0021089 246.4475 298.6835  1.00194605168806
SL-12 R/B(2)            
1 11676U 75097F   26063.13217425  .00000045  00000+0  00000+0 0  9998
2 11676   2.6290 263.5387 0020920 222.6104 318.0883  1.00094916118085
RADUGA 6                
1 11708U 80016A   26063.10062743 -.00000094  00000+0  00000+0 0  9994
2 11708   5.9742 287.6282 0002648 341.9339   3.9516  1.00199185121106
SL-6 R/B(2)             
1 11847U 80050B   26060.26657311 -.00001143  00000+0  00000+0 0  9997
2 11847  68.3797  11.3205 6543799 316.3417   7.4135  1.99564878332413
COSMOS 1191             
1 11871U 80057A   26062.66415671  .00000895  00000+0  00000+0 0  9990
2 11871  65.8674  81.8616 6652166  20.7220 356.9558  2.00959832241344
SL-6 R/B(2)             
1 11888U 80057D   26062.77517196  .00000690  00000+0  00000+0 0  9998
2 11888  62.9139 323.4552 7301571  33.3437 356.2034  1.99417568332640
MOLNIYA 3-13            
1 11896U 80063A   26062.71909785  .00000080  00000+0 -10612-2 0  9994
2 11896  63.8170 304.5106 7239550 277.5004  12.8262  2.00671254334285
SL-6 R/B(2)             
1 11909U 80063D   26061.93074525  .00000464  00000+0  00000+0 0  9999
2 11909  63.6349  34.7353 7316712 277.5620  12.3045  1.96856903327536
SL-12 R/B(2)            
1 11926U 78118C   26061.59844560 -.00000115  00000+0  00000+0 0  9996
2 11926  12.4652 151.0538 3004306   5.3339  15.2327  1.01600782170499
