[{"OBJECT_NAME":"OPS 1948","OBJECT_ID":"1979-086A","EPOCH":"2026-03-03T21:03:38.801952","MEAN_MOTION":1.0014385,"ECCENTRICITY":0.1311237,"INCLINATION":5.9509,"RA_OF_ASC_NODE":11.0669,"ARG_OF_PERICENTER":76.4549,"MEAN_ANOMALY":110.0605,"EPHEMERIS_TYPE":0,"CLASSIFICATION_TYPE":"U","NORAD_CAT_ID":11558,"ELEMENT_SET_NO":999,"REV_AT_EPOCH":2515,"BSTAR":0,"MEAN_MOTION_DOT":-2.03e-6,"MEAN_MOTION_DDOT":0},{"OBJECT_NAME":"TITAN 3C TRANSTAGE R/B","OBJECT_ID":"1979-086C","EPOCH":"2026-03-03T22:15:41.499360","MEAN_MOTION":0.99673469,"ECCENTRICITY":0.1301383,"INCLINATION":5.7739,"RA_OF_ASC_NODE":11.776,"ARG_OF_PERICENTER":125.0438,"MEAN_ANOMALY":248.0289,"EPHEMERIS_TYPE":0,"CLASSIFICATION_TYPE":"U","NORAD_CAT_ID":11560,"ELEMENT_SET_NO":999,"REV_AT_EPOCH":2519,"BSTAR":0,"MEAN_MOTION_DOT":-9.3e-7,"MEAN_MOTION_DDOT":0},{"OBJECT_NAME":"EKRAN 4","OBJECT_ID":"1979-087A","EPOCH":"2026-03-04T02:29:31.267104","MEAN_MOTION":1.0030483,"ECCENTRICITY":0.0003301,"INCLINATION":5.8556,"RA_OF_ASC_NODE":285.8454,"ARG_OF_PERICENTER":120.4561,"MEAN_ANOMALY":244.5628,"EPHEMERIS_TYPE":0,"CLASSIFICATION_TYPE":"U","NORAD_CAT_ID":11561,"ELEMENT_SET_NO":999,"REV_AT_EPOCH":4632,"BSTAR":0,"MEAN_MOTION_DOT":-2.67e-6,"MEAN_MOTION_DDOT":0},{"OBJECT_NAME":"SL-12 R/B(2)","OBJECT_ID":"1974-017F","EPOCH":"2026-03-04T03:14:04.495200","MEAN_MOTION":1.0100658,"ECCENTRICITY":0.0045243,"INCLINATION":0.9549,"RA_OF_ASC_NODE":254.2337,"ARG_OF_PERICENTER":85.6012,"MEAN_ANOMALY":118.0911,"EPHEMERIS_TYPE":0,"CLASSIFICATION_TYPE":"U","NORAD_CAT_ID":11567,"ELEMENT_SET_NO":999,"REV_AT_EPOCH":19161,"BSTAR":0,"MEAN_MOTION_DOT":-1.56e-6,"MEAN_MOTION_DDOT":0},{"OBJECT_NAME":"SL-12 R/B(2)","OBJECT_ID":"1975-123F","EPOCH":"2026-03-03T21:40:30.404352","MEAN_MOTION":1.0047907,"ECCENTRICITY":0.0012936,"INCLINATION":2.8162,"RA_OF_ASC_NODE":265.9213,"ARG_OF_PERICENTER":214.2075,"MEAN_ANOMALY":165.1508,"EPHEMERIS_TYPE":0,"CLASSIFICATION_TYPE":"U","NORAD_CAT_ID":11568,"ELEMENT_SET_NO":999,"REV_AT_EPOCH":12094,"BSTAR":0,"MEAN_MOTION_DOT":-9.6e-7,"MEAN_MOTION_DDOT":0},{"OBJECT_NAME":"EKRAN 2 DEB","OBJECT_ID":"1977-092H","EPOCH":"2026-03-04T02:11:03.036768","MEAN_MOTION":1.00323023,"ECCENTRICITY":0.0007035,"INCLINATION":4.4096,"RA_OF_ASC_NODE":275.4684,"ARG_OF_PERICENTER":287.3856,"MEAN_ANOMALY":18.5312,"EPHEMERIS_TYPE":0,"CLASSIFICATION_TYPE":"U","NORAD_CAT_ID":11581,"ELEMENT_SET_NO":999,"REV_AT_EPOCH":10330,"BSTAR":0,"MEAN_MOTION_DOT":1.32e-6,"MEAN_MOTION_DDOT":0},{"OBJECT_NAME":"TITAN 3C TRANSTAGE R/B","OBJECT_ID":"1979-098C","EPOCH":"2026-03-03T18:20:12.344064","MEAN_MOTION":0.95318106,"ECCENTRICITY":0.02957091,"INCLINATION":10.4186,"RA_OF_ASC_NODE":306.4475,"ARG_OF_PERICENTER":74.4178,"MEAN_ANOMALY":113.8539,"EPHEMERIS_TYPE":0,"CLASSIFICATION_TYPE":"U","NORAD_CAT_ID":11623,"ELEMENT_SET_NO":999,"REV_AT_EPOCH":12158,"BSTAR":0,"MEAN_MOTION_DOT":-1.42e-6,"MEAN_MOTION_DDOT":0},{"OBJECT_NAME":"GORIZONT 3","OBJECT_ID":"1979-105A","EPOCH":"2026-03-04T02:27:01.505664","MEAN_MOTION":1.00197632,"ECCENTRICITY":0.0010771,"INCLINATION":6.1851,"RA_OF_ASC_NODE":288.7953,"ARG_OF_PERICENTER":271.2141,"MEAN_ANOMALY":81.4485,"EPHEMERIS_TYPE":0,"CLASSIFICATION_TYPE":"U","NORAD_CAT_ID":11648,"ELEMENT_SET_NO":999,"REV_AT_EPOCH":12142,"BSTAR":0,"MEAN_MOTION_DOT":-1.66e-6,"MEAN_MOTION_DDOT":0},{"OBJECT_NAME":"OPS 6393 (FLTSATCOM 3)","OBJECT_ID":"1980-004A","EPOCH":"2026-03-04T01:47:12.823008","MEAN_MOTION":1.00194605,"ECCENTRICITY":0.0021089,"INCLINATION":6.3864,"RA_OF_ASC_NODE":307.0985,"ARG_OF_PERICENTER":246.4475,"MEAN_ANOMALY":298.6835,"EPHEMERIS_TYPE":0,"CLASSIFICATION_TYPE":"U","NORAD_CAT_ID":11669,"ELEMENT_SET_NO":999,"REV_AT_EPOCH":16880,"BSTAR":0,"MEAN_MOTION_DOT":-3.06e-6,"MEAN_MOTION_DDOT":0},{"OBJECT_NAME":"SL-12 R/B(2)","OBJECT_ID":"1975-097F","EPOCH":"2026-03-04T03:10:19.855200","MEAN_MOTION":1.00094916,"ECCENTRICITY":0.002092,"INCLINATION":2.629,"RA_OF_ASC_NODE":263.5387,"ARG_OF_PERICENTER":222.6104,"MEAN_ANOMALY":318.0883,"EPHEMERIS_TYPE":0,"CLASSIFICATION_TYPE":"U","NORAD_CAT_ID":11676,"ELEMENT_SET_NO":999,"REV_AT_EPOCH":11808,"BSTAR":0,"MEAN_MOTION_DOT":4.5e-7,"MEAN_MOTION_DDOT":0},{"OBJECT_NAME":"RADUGA 6","OBJECT_ID":"1980-016A","EPOCH":"2026-03-04T02:24:54.209952","MEAN_MOTION":1.00199185,"ECCENTRICITY":0.0002648,"INCLINATION":5.9742,"RA_OF_ASC_NODE":287.6282,"ARG_OF_PERICENTER":341.9339,"MEAN_ANOMALY":3.9516,"EPHEMERIS_TYPE":0,"CLASSIFICATION_TYPE":"U","NORAD_CAT_ID":11708,"ELEMENT_SET_NO":999,"REV_AT_EPOCH":12110,"BSTAR":0,"MEAN_MOTION_DOT":-9.4e-7,"MEAN_MOTION_DDOT":0},{"OBJECT_NAME":"SL-6 R/B(2)","OBJECT_ID":"1980-050B","EPOCH":"2026-03-01T06:23:51.916704","MEAN_MOTION":1.99564878,"ECCENTRICITY":0.65437992,"INCLINATION":68.3797,"RA_OF_ASC_NODE":11.3205,"ARG_OF_PERICENTER":316.3417,"MEAN_ANOMALY":7.4135,"EPHEMERIS_TYPE":0,"CLASSIFICATION_TYPE":"U","NORAD_CAT_ID":11847,"ELEMENT_SET_NO":999,"REV_AT_EPOCH":33241,"BSTAR":0,"MEAN_MOTION_DOT":-1.143e-5,"MEAN_MOTION_DDOT":0},{"OBJECT_NAME":"COSMOS 1191","OBJECT_ID":"1980-057A","EPOCH":"2026-03-03T15:56:23.139744","MEAN_MOTION":2.00959832,"ECCENTRICITY":0.6652166,"INCLINATION":65.8674,"RA_OF_ASC_NODE":81.8616,"ARG_OF_PERICENTER":20.722,"MEAN_ANOMALY":356.9558,"EPHEMERIS_TYPE":0,"CLASSIFICATION_TYPE":"U","NORAD_CAT_ID":11871,"ELEMENT_SET_NO":999,"REV_AT_EPOCH":24134,"BSTAR":0,"MEAN_MOTION_DOT":8.95e-6,"MEAN_MOTION_DDOT":0},{"OBJECT_NAME":"SL-6 R/B(2)","OBJECT_ID":"1980-057D","EPOCH":"2026-03-03T18:36:14.857344","MEAN_MOTION":1.99417568,"ECCENTRICITY":0.7301571,"INCLINATION":62.9139,"RA_OF_ASC_NODE":323.4552,"ARG_OF_PERICENTER":33.3437,"MEAN_ANOMALY":356.2034,"EPHEMERIS_TYPE":0,"CLASSIFICATION_TYPE":"U","NORAD_CAT_ID":11888,"ELEMENT_SET_NO":999,"REV_AT_EPOCH":33264,"BSTAR":0,"MEAN_MOTION_DOT":6.9e-6,"MEAN_MOTION_DDOT":0},{"OBJECT_NAME":"MOLNIYA 3-13","OBJECT_ID":"1980-063A","EPOCH":"2026-03-03T17:15:30.054240","MEAN_MOTION":2.00671254,"ECCENTRICITY":0.723955,"INCLINATION":63.817,"RA_OF_ASC_NODE":304.5106,"ARG_OF_PERICENTER":277.5004,"MEAN_ANOMALY":12.8262,"EPHEMERIS_TYPE":0,"CLASSIFICATION_TYPE":"U","NORAD_CAT_ID":11896,"ELEMENT_SET_NO":999,"REV_AT_EPOCH":33428,"BSTAR":-0.0010612,"MEAN_MOTION_DOT":8.0e-7,"MEAN_MOTION_DDOT":0},{"OBJECT_NAME":"SL-6 R/B(2)","OBJECT_ID":"1980-063D","EPOCH":"2026-03-02T22:20:16.389600","MEAN_MOTION":1.96856903,"ECCENTRICITY":0.73167129,"INCLINATION":63.6349,"RA_OF_ASC_NODE":34.7353,"ARG_OF_PERICENTER":277.562,"MEAN_ANOMALY":12.3045,"EPHEMERIS_TYPE":0,"CLASSIFICATION_TYPE":"U","NORAD_CAT_ID":11909,"ELEMENT_SET_NO":999,"REV_AT_EPOCH":32753,"BSTAR":0,"MEAN_MOTION_DOT":4.64e-6,"MEAN_MOTION_DDOT":0},{"OBJECT_NAME":"SL-12 R/B(2)","OBJECT_ID":"1978-118C","EPOCH":"2026-03-02T14:21:45.699840","MEAN_MOTION":1.01600782,"ECCENTRICITY":0.3004306,"INCLINATION":12.4652,"RA_OF_ASC_NODE":151.0538,"ARG_OF_PERICENTER":5.3339,"MEAN_ANOMALY":15.2327,"EPHEMERIS_TYPE":0,"CLASSIFICATION_TYPE":"U","NORAD_CAT_ID":11926,"ELEMENT_SET_NO":999,"REV_AT_EPOCH":17049,"BSTAR":0,"MEAN_MOTION_DOT":-1.15e-6,"MEAN_MOTION_DDOT":0}]
